SKYSAT-C1               
1 41601U 16040C   26190.35925114  .00006902  00000+0  19474-3 0  9995
2 41601  96.9561 220.8806 0000919   6.2368 353.8888 15.36681886561276
LAPAN-A3                
1 41603U 16040E   26191.29542652  .00002285  00000+0  73386-4 0  9996
2 41603  97.1498 186.6848 0008336 297.5877  62.4519 15.33258230558355
GAOFEN-3                
1 41727U 16049A   26191.32559211  .00000223  00000+0  80833-4 0  9990
2 41727  98.4020 198.7623 0001778  88.8393 271.3001 14.42218999521982
SKYSAT-C4               
1 41771U 16058B   26191.33065229  .00013127  00000+0  24129-3 0  9993
2 41771  96.9171 212.1432 0003294 125.0872 235.0690 15.49327873549050
SKYSAT-C5               
1 41772U 16058C   26190.92648947  .00007436  00000+0  22860-3 0  9998
2 41772  97.0465 230.5527 0002034 135.3938 224.7470 15.33955160547234
SKYSAT-C2               
1 41773U 16058D   26189.99420614  .00008655  00000+0  20102-3 0  9994
2 41773  97.0167 211.2736 0002219  17.2519 342.8804 15.42580195548416
SKYSAT-C3               
1 41774U 16058E   26191.01715193  .00018005  00000+0  28437-3 0  9999
2 41774  96.9003 220.9981 0002189 133.5121 226.6316 15.53540793549656
ALSAT-1B                
1 41785U 16059C   26191.27963794  .00000319  00000+0  57838-4 0  9999
2 41785  97.7759 199.0469 0009983 144.0471 216.1411 14.72292834523973
PATHFINDER 1            
1 41787U 16059E   26190.70288776  .00000390  00000+0  76166-4 0  9992
2 41787  97.8173 188.9636 0029543 132.4766 227.8944 14.67689171523014
SCATSAT 1               
1 41790U 16059H   26191.13961457  .00000834  00000+0  11606-3 0  9998
2 41790  98.1179 255.1415 0054844 172.7125 187.4896 14.79579540104987
GOKTURK 1A              
1 41875U 16073A   26191.29775576  .00000307  00000+0  69396-4 0  9995
2 41875  98.1221  85.6069 0001435  78.1221 282.0142 14.62791488512207
RESOURCESAT-2A          
1 41877U 16074A   26191.29698581 -.00000127  00000+0 -37584-4 0  9994
2 41877  98.7519 264.6120 0002669  39.3682 320.7689 14.21607506497583
CARTOSAT-2D             
1 41948U 17008A   26191.27667068  .00000915  00000+0  46614-4 0  9992
2 41948  97.4098 250.1496 0005661 152.3951 207.7586 15.19259457521085
SENTINEL-2B             
1 42063U 17013A   26191.28442122 -.00000171  00000+0 -48507-4 0  9999
2 42063  98.5683 265.7324 0001207  91.0331 269.0991 14.30813652487943
CARTOSAT-2E             
1 42767U 17036C   26191.29434436  .00001601  00000+0  79216-4 0  9993
2 42767  97.4268 250.7141 0002824 208.1436 151.9647 15.19230900501654
FORMOSAT-5              
1 42920U 17049A   26191.29346281  .00000053  00000+0  24491-4 0  9993
2 42920  98.2247 266.0893 0011675  18.7216 341.4407 14.50906979470026
SENTINEL-5P             
1 42969U 17064A   26191.25077246  .00000008  00000+0  24664-4 0  9993
2 42969  98.7929 133.2186 0001117  92.4303 267.7001 14.19522784452839
SKYSAT-C11              
1 42987U 17068A   26190.65835404  .00021499  00000+0  27645-3 0  9996
2 42987  97.4368 340.4901 0000812 166.0165 194.1114 15.59105762486747
SKYSAT-C10              
1 42988U 17068B   26190.65457372  .00007814  00000+0  23222-3 0  9993
2 42988  97.4523 327.7297 0001360 109.0541 251.0850 15.35042344485807
SKYSAT-C9               
1 42989U 17068C   26190.62943440  .00009130  00000+0  21510-3 0  9998
2 42989  97.4443 328.8561 0009064  62.2816 297.9350 15.42121068486218
SKYSAT-C8               
1 42990U 17068D   26190.65650340  .00007514  00000+0  20712-3 0  9994
2 42990  97.4543 327.6181 0001224  99.9689 260.1694 15.37418486485760
SKYSAT-C7               
1 42991U 17068E   26191.17151926  .00007419  00000+0  20468-3 0  9991
2 42991  97.4551 329.1314 0006142  37.9429 322.2247 15.37378749485900
SKYSAT-C6               
1 42992U 17068F   26190.64887445  .00006518  00000+0  19987-3 0  9998
2 42992  97.4588 328.4799 0005162 103.1836 256.9983 15.34106572485763
CARTOSAT-2F             
1 43111U 18004A   26191.26108508  .00001082  00000+0  54612-4 0  9994
2 43111  97.4777 250.6688 0002382 146.3595 213.7791 15.19243927470831
GAOFEN-1 02             
1 43259U 18031A   26191.34067044  .00000801  00000+0  12243-3 0  9996
2 43259  98.0516 253.8019 0001696 314.5251  45.5819 14.76469031446114
GAOFEN-1 03             
1 43260U 18031B   26191.31873869  .00000420  00000+0  67773-4 0  9991
2 43260  98.0506 253.6357 0002797  28.7408 331.3955 14.76458419446103
GAOFEN-1 04             
1 43262U 18031D   26191.29446845  .00000552  00000+0  86725-4 0  9994
2 43262  98.0518 253.8054 0001513  58.6911 301.4447 14.76467990446096
SENTINEL-3B             
1 43437U 18039A   26190.42086302  .00000053  00000+0  40007-4 0  9997
2 43437  98.6239 257.6331 0001016 120.0757 240.0524 14.26741005427298
GAOFEN-5 01             
1 43461U 18043A   26190.66830026  .00000209  00000+0  53023-4 0  9990
2 43461  98.4586 162.7286 0002397  43.0598 317.0789 14.60621115434971
GAOFEN-6                
1 43484U 18048A   26191.31673601 -.00000013  00000+0  56173-5 0  9991
2 43484  98.0959 254.0071 0012133  95.3008 264.9586 14.76378602436804
